PROBA-1                 
1 26958U 01049B   26198.20389942  .00001015  00000+0  68977-4 0  9994
2 26958  97.9600 207.7869 0055575  23.2063 337.1654 15.07620208348145
CUTE-1 (CO-55)          
1 27844U 03031E   26197.54116079  .00000131  00000+0  75515-4 0  9991
2 27844  98.6744 205.7314 0010852  99.2116 261.0291 14.24352049195854
CUBESAT XI-IV (CO-57)   
1 27848U 03031J   26197.96606914  .00000108  00000+0  66478-4 0  9995
2 27848  98.6775 205.8397 0010600 114.7088 245.5195 14.23635119195611
APRIZESAT 4             
1 35684U 09041D   26197.99411073  .00000350  00000+0  48546-4 0  9997
2 35684  98.1404 273.9074 0042340 223.5589 136.2279 14.83915185915788
APRIZESAT 3             
1 35686U 09041F   26197.85743328  .00000614  00000+0  58323-4 0  9992
2 35686  98.2104 352.5098 0060741 330.3880  29.3905 14.96313574920810
PROBA-2                 
1 36037U 09059B   26197.95142111  .00000059  00000+0  24197-4 0  9991
2 36037  98.2461  20.8931 0013135 183.2522 176.8592 14.54874063885854
APRIZESAT 5             
1 37792U 11044E   26197.80017425  .00000372  00000+0  54422-4 0  9992
2 37792  98.2448 131.6814 0050686 267.3823  92.1586 14.81128947803170
APRIZESAT 6             
1 37793U 11044F   26197.75285005  .00000348  00000+0  56622-4 0  9995
2 37793  98.2335 108.8536 0042921 353.2900  67.9147 14.76958132801517
PROBA-V                 
1 39159U 13021A   26197.91980924  .00000010  00000+0  22272-4 0  9990
2 39159  98.3606 175.0618 0005197  55.8916 304.2756 14.23603572685341
APRIZESAT 7             
1 39416U 13066A   26197.87218319  .00000634  00000+0  67990-4 0  9990
2 39416  97.7723 150.6688 0037286 111.9820 248.5368 14.91621270685651
APRIZESAT 8             
1 39425U 13066K   26197.80327727  .00000366  00000+0  45613-4 0  9997
2 39425  97.8230 144.8610 0045628 186.5558 173.5067 14.87697771684072
BUGSAT-1 (TITA)         
1 40014U 14033E   26198.20526830  .00003528  00000+0  18630-3 0  9990
2 40014  98.0432 292.5162 0028916  79.2659 281.1825 15.15893710660388
SAUDISAT 4              
1 40016U 14033G   26197.87543167  .00000225  00000+0  36576-4 0  9997
2 40016  97.7620 342.9898 0044107 338.5547  21.3816 14.79576560650460
APRIZESAT 9             
1 40018U 14033J   26197.86823522  .00000298  00000+0  51157-4 0  9996
2 40018  97.9097 330.3471 0067482 104.6743 256.1959 14.74253815647935
APRIZESAT 10            
1 40019U 14033K   26197.85450179  .00000291  00000+0  53551-4 0  9993
2 40019  97.9684 324.1577 0078867 178.0548 182.0981 14.70912058646616
TECHDEMOSAT-1 (TDS-1)   
1 40076U 14037H   26197.97530801  .00003767  00000+0  21357-3 0  9993
2 40076  98.3828 193.1524 0007078 153.0804 207.0793 15.13694218652736
TECHNOSAT               
1 42829U 17042E   26197.90159693  .00001492  00000+0  10872-3 0  9992
2 42829  97.4320 354.4366 0017267 358.0038   2.1117 15.05116788491179
FLYING LAPTOP           
1 42831U 17042G   26198.17956471  .00001754  00000+0  14024-3 0  9998
2 42831  97.4815 352.5854 0019613  26.2023 334.0190 15.01320038490951
HAWK-A                  
1 43765U 18099H   26198.07570926  .00003796  00000+0  15258-3 0  9992
2 43765  97.3893 249.9255 0034934 177.4083 182.7342 15.24979113417657
HAWK-B                  
1 43794U 18099AN  26198.13315955  .00003241  00000+0  13853-3 0  9994
2 43794  97.3942 249.3342 0031577 195.2137 164.8153 15.23128342417596
HAWK-C                  
1 43799U 18099AT  26198.18038439  .00004580  00000+0  16392-3 0  9991
2 43799  97.3870 251.0905 0040504 176.8223 183.3282 15.28509319418498
SALSAT                  
1 46495U 20068K   26197.90294493  .00003936  00000+0  13754-3 0  9992
2 46495  97.8857 202.7868 0009381 186.6655 173.4461 15.30185999319903
HAWK-2C                 
1 47502U 21006CT  26198.14228248  .00003492  00000+0  10503-3 0  9993
2 47502  97.2260 241.8588 0008675  95.3693 264.8541 15.35003316304096
HAWK-2A                 
1 47505U 21006CW  26197.68816308  .00004423  00000+0  13239-3 0  9998
2 47505  97.2303 242.1085 0008210  99.9973 260.2197 15.35021611304027
HAWK-2B                 
1 47508U 21006CZ  26198.07265874  .00004278  00000+0  12755-3 0  9991
2 47508  97.2173 240.7705 0008763  97.1141 263.1099 15.35152493304080
HAWK-3B                 
1 48931U 21059BE  26197.50073101  .00030374  00000+0  23387-3 0  9996
2 48931  97.6631  37.0342 0004634 193.4440 166.6700 15.71948524282453
HAWK-3C                 
1 48948U 21059BX  26198.00966955  .00029575  00000+0  22742-3 0  9993
2 48948  97.6748  43.3297 0004953 192.2303 167.8839 15.71982005282535
HAWK-3A                 
1 48957U 21059CG  26197.56395892  .00029863  00000+0  22989-3 0  9992
2 48957  97.6691  40.0209 0004820 195.8610 164.2502 15.71953796282467
HAWK-5C                 
1 52754U 22057Y   26197.89793039  .00010644  00000+0  17633-3 0  9999
2 52754  97.6621 359.5081 0002641 338.9804  21.1339 15.52363374230952
HAWK-5B                 
1 52756U 22057AA  26198.15558976  .00010690  00000+0  17708-3 0  9994
2 52756  97.6636 358.1368 0003308 323.0148  37.0875 15.52365680230997
HAWK-5A                 
1 52757U 22057AB  26197.44632949  .00011042  00000+0  18293-3 0  9991
2 52757  97.6626 358.2106 0003229 332.4655  27.6425 15.52352143230881
